COMMENT,ORIGINATOR,NORAD_CAT_ID,OBJECT_NAME,OBJECT_TYPE,CLASSIFICATION_TYPE,INTLDES,EPOCH,EPOCH_MICROSECONDS,MEAN_MOTION,ECCENTRICITY,INCLINATION,RA_OF_ASC_NODE,ARG_OF_PERICENTER,MEAN_ANOMALY,EPHEMERIS_TYPE,ELEMENT_SET_NO,REV_AT_EPOCH,BSTAR,MEAN_MOTION_DOT,MEAN_MOTION_DDOT,FILE,TLE_LINE0,TLE_LINE1,TLE_LINE2,OBJECT_ID,OBJECT_NUMBER,SEMIMAJOR_AXIS,PERIOD,APOGEE,PERIGEE,DECAYED
GENERATED VIA SPACETRACK.ORG API,18 SPCS,44336,ARIANE 5 DEB (SYLDA),DEBRIS,U,19034D,2024-06-14 15:50:27,887136,3.70024377,0.6268851,5.7848,184.6888,274.2014,21.2687,0,999,5038,0.010952,0.00216021,0,4344170,0 ARIANE 5 DEB (SYLDA),1 44336U 19034D   24166.66004499  .00216021  00000-0  10952-1 0  9994,2 44336   5.7848 184.6888 6268851 274.2014  21.2687  3.70024377 50388,2019-034D,44336,17656.92,389.164,22347.645,209.925,0
GENERATED VIA SPACETRACK.ORG API,18 SPCS,44336,ARIANE 5 DEB (SYLDA),DEBRIS,U,19034D,2024-06-15 11:16:50,883168,3.70385421,0.6266391,5.7852,184.0498,275.4507,20.7568,0,999,5041,0.01146,0.0022604,0,4344172,0 ARIANE 5 DEB (SYLDA),1 44336U 19034D   24167.47003337  .00226040  00000-0  11460-1 0  9991,2 44336   5.7852 184.0498 6266391 275.4507  20.7568  3.70385421 50417,2019-034D,44336,17645.444,388.784,22324.634,209.984,0
GENERATED VIA SPACETRACK.ORG API,18 SPCS,44336,ARIANE 5 DEB (SYLDA),DEBRIS,U,19034D,2024-06-16 06:42:04,973472,3.70753678,0.6263876,5.7852,183.4194,276.6905,20.2608,0,999,5044,0.011264,0.00222099,0,4344175,0 ARIANE 5 DEB (SYLDA),1 44336U 19034D   24168.27922423  .00222099  00000-0  11264-1 0  9998,2 44336   5.7852 183.4194 6263876 276.6905  20.2608  3.70753678 50449,2019-034D,44336,17633.757,388.398,22301.189,210.055,0
GENERATED VIA SPACETRACK.ORG API,18 SPCS,44336,ARIANE 5 DEB (SYLDA),DEBRIS,U,19034D,2024-06-17 15:01:36,941664,3.71349395,0.6260094,5.7858,182.3638,278.766,19.4502,0,999,5049,0.011119,0.00222044,0,4344470,0 ARIANE 5 DEB (SYLDA),1 44336U 19034D   24169.62612201  .00222044  00000-0  11119-1 0  9997,2 44336   5.7858 182.3638 6260094 278.7660  19.4502  3.71349395 50492,2019-034D,44336,17614.894,387.775,22263.848,209.67,0
GENERATED VIA SPACETRACK.ORG API,18 SPCS,44336,ARIANE 5 DEB (SYLDA),DEBRIS,U,19034D,2024-06-18 03:56:34,829664,3.7159015,0.625844,5.7857,181.9424,279.5946,19.1357,0,999,5048,0.011345,0.00226389,0,4344508,0 ARIANE 5 DEB (SYLDA),1 44336U 19034D   24170.16429201  .00226389  00000-0  11345-1 0  9991,2 44336   5.7857 181.9424 6258440 279.5946  19.1357  3.71590150 50488,2019-034D,44336,17607.284,387.524,22248.563,209.736,0
GENERATED VIA SPACETRACK.ORG API,18 SPCS,44336,ARIANE 5 DEB (SYLDA),DEBRIS,U,19034D,2024-06-18 10:23:51,883296,3.7172019,0.6257589,5.786,181.7243,280.0164,18.9772,0,999,5049,0.011618,0.00232203,0,4344908,0 ARIANE 5 DEB (SYLDA),1 44336U 19034D   24170.43323939  .00232203  00000-0  11618-1 0  9997,2 44336   5.7860 181.7243 6257589 280.0164  18.9772  3.71720190 50499,2019-034D,44336,17603.178,387.388,22240.388,209.698,0
GENERATED VIA SPACETRACK.ORG API,18 SPCS,44336,ARIANE 5 DEB (SYLDA),DEBRIS,U,19034D,2024-06-18 10:23:51,745056,3.71718578,0.6257617,5.7858,181.7189,280.0255,18.9735,0,999,5052,0.011611,0.00232248,0,4345144,0 ARIANE 5 DEB (SYLDA),1 44336U 19034D   24170.43323779  .00232248  00000-0  11611-1 0  9991,2 44336   5.7858 181.7189 6257617 280.0255  18.9735  3.71718578 50528,2019-034D,44336,17603.229,387.39,22240.52,209.667,0
GENERATED VIA SPACETRACK.ORG API,18 SPCS,44336,ARIANE 5 DEB (SYLDA),DEBRIS,U,19034D,2024-06-19 05:44:57,240096,3.72089249,0.6255184,5.7864,181.0809,281.2749,18.51,0,999,5055,0.011394,0.00228848,0,4346095,0 ARIANE 5 DEB (SYLDA),1 44336U 19034D   24171.23955139  .00228848  00000-0  11394-1 0  9990,2 44336   5.7864 181.0809 6255184 281.2749  18.5100  3.72089249 50557,2019-034D,44336,17591.536,387.004,22217.23,209.572,0
GENERATED VIA SPACETRACK.ORG API,18 SPCS,44336,ARIANE 5 DEB (SYLDA),DEBRIS,U,19034D,2024-06-19 05:44:57,240096,3.72089249,0.6255184,5.7864,181.0809,281.2749,18.51,0,999,5052,0.011394,0.00228848,0,4346154,0 ARIANE 5 DEB (SYLDA),1 44336U 19034D   24171.23955139  .00228848  00000-0  11394-1 0  9990,2 44336   5.7864 181.0809 6255184 281.2749  18.5100  3.72089249 50524,2019-034D,44336,17591.536,387.004,22217.23,209.572,0
GENERATED VIA SPACETRACK.ORG API,18 SPCS,44336,ARIANE 5 DEB (SYLDA),DEBRIS,U,19034D,2024-06-20 07:31:18,64992,3.72583839,0.6252042,5.7875,180.2326,282.937,17.9078,0,999,5059,0.011158,0.0022644,0,4346663,0 ARIANE 5 DEB (SYLDA),1 44336U 19034D   24172.31340353  .00226440  00000-0  11158-1 0  9990,2 44336   5.7875 180.2326 6252042 282.9370  17.9078  3.72583839 50597,2019-034D,44336,17575.964,386.49,22186.396,209.263,0
GENERATED VIA SPACETRACK.ORG API,18 SPCS,44336,ARIANE 5 DEB (SYLDA),DEBRIS,U,19034D,2024-06-21 02:49:44,365440,3.7295044,0.6249616,5.7877,179.5988,284.184,17.4681,0,999,5059,0.01138,0.00231676,0,4347547,0 ARIANE 5 DEB (SYLDA),1 44336U 19034D   24173.11787460  .00231676  00000-0  11380-1 0  9997,2 44336   5.7877 179.5988 6249616 284.1840  17.4681  3.72950440 50594,2019-034D,44336,17564.445,386.11,22163.413,209.206,0
GENERATED VIA SPACETRACK.ORG API,18 SPCS,44336,ARIANE 5 DEB (SYLDA),DEBRIS,U,19034D,2024-06-21 02:49:44,365440,3.7295044,0.6249616,5.7877,179.5988,284.184,17.4681,0,999,5062,0.01138,0.00231676,0,4347757,0 ARIANE 5 DEB (SYLDA),1 44336U 19034D   24173.11787460  .00231676  00000-0  11380-1 0  9997,2 44336   5.7877 179.5988 6249616 284.1840  17.4681  3.72950440 50628,2019-034D,44336,17564.445,386.11,22163.413,209.206,0
GENERATED VIA SPACETRACK.ORG API,18 SPCS,44336,ARIANE 5 DEB (SYLDA),DEBRIS,U,19034D,2024-06-22 04:32:33,30816,3.73445251,0.6246243,5.7883,178.7429,285.86,16.8935,0,999,5066,0.011427,0.00232551,0,4348629,0 ARIANE 5 DEB (SYLDA),1 44336U 19034D   24174.18927119  .00232551  00000-0  11427-1 0  9997,2 44336   5.7883 178.7429 6246243 285.8600  16.8935  3.73445251 50660,2019-034D,44336,17548.926,385.599,22132.277,209.305,0
GENERATED VIA SPACETRACK.ORG API,18 SPCS,44336,ARIANE 5 DEB (SYLDA),DEBRIS,U,19034D,2024-06-22 04:32:33,30816,3.73445251,0.6246243,5.7883,178.7429,285.86,16.8935,0,999,5063,0.011427,0.00232551,0,4348688,0 ARIANE 5 DEB (SYLDA),1 44336U 19034D   24174.18927119  .00232551  00000-0  11427-1 0  9997,2 44336   5.7883 178.7429 6246243 285.8600  16.8935  3.73445251 50637,2019-034D,44336,17548.926,385.599,22132.277,209.305,0
GENERATED VIA SPACETRACK.ORG API,18 SPCS,44336,ARIANE 5 DEB (SYLDA),DEBRIS,U,19034D,2024-06-22 23:48:20,521152,3.73815619,0.6243951,5.7888,178.1034,287.1104,16.4752,0,999,5069,0.011581,0.00238197,0,4349479,0 ARIANE 5 DEB (SYLDA),1 44336U 19034D   24174.99190418  .00238197  00000-0  11581-1 0  9993,2 44336   5.7888 178.1034 6243951 287.1104  16.4752  3.73815619 50693,2019-034D,44336,17537.333,385.217,22109.423,208.973,0
GENERATED VIA SPACETRACK.ORG API,18 SPCS,44336,ARIANE 5 DEB (SYLDA),DEBRIS,U,19034D,2024-06-24 01:27:37,960128,3.74312518,0.6240312,5.7896,177.2514,288.7928,15.9323,0,999,5070,0.011502,0.0023372,0,4349866,0 ARIANE 5 DEB (SYLDA),1 44336U 19034D   24176.06085602  .00233720  00000-0  11502-1 0  9991,2 44336   5.7896 177.2514 6240312 288.7928  15.9323  3.74312518 50705,2019-034D,44336,17521.809,384.705,22077.829,209.518,0
GENERATED VIA SPACETRACK.ORG API,18 SPCS,44336,ARIANE 5 DEB (SYLDA),DEBRIS,U,19034D,2024-06-24 07:52:08,450976,3.74424406,0.6239445,5.7905,177.0237,289.2234,15.7957,0,999,5071,0.011201,0.00226484,0,4350123,0 ARIANE 5 DEB (SYLDA),1 44336U 19034D   24176.32787559  .00226484  00000-0  11201-1 0  9995,2 44336   5.7905 177.0237 6239445 289.2234  15.7957  3.74424406 50719,2019-034D,44336,17518.318,384.59,22070.641,209.725,0
GENERATED VIA SPACETRACK.ORG API,18 SPCS,44336,ARIANE 5 DEB (SYLDA),DEBRIS,U,19034D,2024-06-24 07:52:08,450976,3.74424406,0.6239445,5.7905,177.0237,289.2234,15.7957,0,999,5074,0.011201,0.00226484,0,4350351,0 ARIANE 5 DEB (SYLDA),1 44336U 19034D   24176.32787559  .00226484  00000-0  11201-1 0  9995,2 44336   5.7905 177.0237 6239445 289.2234  15.7957  3.74424406 50742,2019-034D,44336,17518.318,384.59,22070.641,209.725,0
GENERATED VIA SPACETRACK.ORG API,18 SPCS,44336,ARIANE 5 DEB (SYLDA),DEBRIS,U,19034D,2024-06-26 04:40:05,485152,3.75324838,0.6233422,5.7917,175.5315,292.1488,14.8981,0,999,5078,0.011678,0.00237172,0,4351750,0 ARIANE 5 DEB (SYLDA),1 44336U 19034D   24178.19450793  .00237172  00000-0  11678-1 0  9993,2 44336   5.7917 175.5315 6233422 292.1488  14.8981  3.75324838 50788,2019-034D,44336,17490.288,383.668,22014.588,209.719,0
GENERATED VIA SPACETRACK.ORG API,18 SPCS,44336,ARIANE 5 DEB (SYLDA),DEBRIS,U,19034D,2024-06-26 11:03:32,913504,3.75441846,0.6232834,5.7917,175.3236,292.5559,14.7753,0,999,5082,0.011658,0.00239044,0,4351883,0 ARIANE 5 DEB (SYLDA),1 44336U 19034D   24178.46079761  .00239044  00000-0  11658-1 0  9993,2 44336   5.7917 175.3236 6232834 292.5559  14.7753  3.75441846 50827,2019-034D,44336,17486.654,383.548,22007.661,209.378,0
GENERATED VIA SPACETRACK.ORG API,18 SPCS,44336,ARIANE 5 DEB (SYLDA),DEBRIS,U,19034D,2024-06-26 11:03:32,913504,3.75441846,0.6232834,5.7917,175.3236,292.5559,14.7753,0,999,5079,0.011658,0.00239044,0,4352493,0 ARIANE 5 DEB (SYLDA),1 44336U 19034D   24178.46079761  .00239044  00000-0  11658-1 0  9993,2 44336   5.7917 175.3236 6232834 292.5559  14.7753  3.75441846 50793,2019-034D,44336,17486.654,383.548,22007.661,209.378,0
GENERATED VIA SPACETRACK.ORG API,18 SPCS,44336,ARIANE 5 DEB (SYLDA),DEBRIS,U,19034D,2024-06-28 07:44:20,401440,3.76338169,0.6226781,5.7935,173.8243,295.4975,13.9199,0,999,5086,0.012045,0.00247263,0,4353425,0 ARIANE 5 DEB (SYLDA),1 44336U 19034D   24180.32245835  .00247263  00000-0  12045-1 0  9991,2 44336   5.7935 173.8243 6226781 295.4975  13.9199  3.76338169 50869,2019-034D,44336,17458.878,382.635,21952.004,209.482,0
